{
    "links": {
        "self": "http://www.neowsapp.com/rest/v1/neo/3352550?api_key=iIulBulltgU6a56xZRHN4H3l9WmuAYTsLGpBGhQ2"
    },
    "id": "3352550",
    "neo_reference_id": "3352550",
    "name": "(2006 UT17)",
    "designation": "2006 UT17",
    "nasa_jpl_url": "http://ssd.jpl.nasa.gov/sbdb.cgi?sstr=3352550",
    "absolute_magnitude_h": 24.2,
    "estimated_diameter": {
        "kilometers": {
            "estimated_diameter_min": 0.0384197891,
            "estimated_diameter_max": 0.0859092601
        },
        "meters": {
            "estimated_diameter_min": 38.4197891064,
            "estimated_diameter_max": 85.9092601232
        },
        "miles": {
            "estimated_diameter_min": 0.0238729428,
            "estimated_diameter_max": 0.0533815229
        },
        "feet": {
            "estimated_diameter_min": 126.0491808919,
            "estimated_diameter_max": 281.8545369825
        }
    },
    "is_potentially_hazardous_asteroid": false,
    "close_approach_data": [
        {
            "close_approach_date": "2006-11-14",
            "close_approach_date_full": "2006-Nov-14 19:04",
            "epoch_date_close_approach": 1163531040000,
            "relative_velocity": {
                "kilometers_per_second": "6.4560907619",
                "kilometers_per_hour": "23241.9267429038",
                "miles_per_hour": "14441.6294253338"
            },
            "miss_distance": {
                "astronomical": "0.1079185235",
                "lunar": "41.9803056415",
                "kilometers": "16144381.249144945",
                "miles": "10031653.334272441"
            },
            "orbiting_body": "Earth"
        }
    ],
    "orbital_data": {
        "orbit_id": "10",
        "orbit_determination_date": "2017-04-06 09:07:49",
        "first_observation_date": "2006-10-20",
        "last_observation_date": "2006-12-11",
        "data_arc_in_days": 52,
        "observations_used": 22,
        "orbit_uncertainty": "8",
        "minimum_orbit_intersection": ".0908502",
        "jupiter_tisserand_invariant": "3.348",
        "epoch_osculation": "2454038.5",
        "eccentricity": ".5417875700970832",
        "semi_major_axis": "2.342699309993742",
        "inclination": "2.034049394107512",
        "ascending_node_longitude": "15.54583929064818",
        "orbital_period": "1309.704293773587",
        "perihelion_distance": "1.073453943364119",
        "perihelion_argument": "49.53152428195248",
        "aphelion_distance": "3.611944676623365",
        "perihelion_time": "2454063.252018946243",
        "mean_anomaly": "353.196382677365",
        "mean_motion": ".2748712069674518",
        "equinox": "J2000",
        "orbit_class": {
            "orbit_class_type": "AMO",
            "orbit_class_description": "Near-Earth asteroid orbits similar to that of 1221 Amor",
            "orbit_class_range": "1.017 AU < q (perihelion) < 1.3 AU"
        }
    },
    "is_sentry_object": false
}